{
  "type": "FeatureCollection",
  "features": [
    {
      "type": "Feature",
      "properties": {
        "norad_id": 66559,
        "name": "STARLINK-35419",
        "group": "last-30-days",
        "lat": -22.793003895626146,
        "lon": 29.025890397597042,
        "alt_km": 338.6646433924725,
        "timestamp": "2025-12-02T10:50:46.053280+00:00",
        "meta_object_name": "STARLINK-35419",
        "meta_object_id": "2025-268C",
        "meta_epoch": "2025-12-02T04:00:03.998880",
        "meta_mean_motion": 15.78605643,
        "meta_eccentricity": 0.0001917,
        "meta_inclination": 42.9969,
        "meta_ra_of_asc_node": 183.9563,
        "meta_arg_of_pericenter": 274.6409,
        "meta_mean_anomaly": 117.6105,
        "meta_ephemeris_type": 0,
        "meta_classification_type": "U",
        "meta_norad_cat_id": 66559,
        "meta_element_set_no": 999,
        "meta_rev_at_epoch": 297,
        "meta_bstar": -0.0096551,
        "meta_mean_motion_dot": -0.01527341,
        "meta_mean_motion_ddot": 0,
        "tle_line1": "1 66559U 25268C   25336.16671295 -.01527341  00000+0 -96551-2 0  9992",
        "tle_line2": "2 66559  42.9969 183.9563 0001917 274.6409 117.6105 15.78605643  2971"
      },
      "geometry": {
        "type": "Point",
        "coordinates": [
          29.025890397597042,
          -22.793003895626146
        ]
      }
    },
    {
      "type": "Feature",
      "properties": {
        "norad_id": 66560,
        "name": "STARLINK-35411",
        "group": "last-30-days",
        "lat": -23.99245832883551,
        "lon": 30.74638146277029,
        "alt_km": 338.8029549655921,
        "timestamp": "2025-12-02T10:50:46.053290+00:00",
        "meta_object_name": "STARLINK-35411",
        "meta_object_id": "2025-268D",
        "meta_epoch": "2025-12-02T04:00:03.998880",
        "meta_mean_motion": 15.78594445,
        "meta_eccentricity": 0.0001841,
        "meta_inclination": 42.9971,
        "meta_ra_of_asc_node": 183.9512,
        "meta_arg_of_pericenter": 275.3133,
        "meta_mean_anomaly": 118.9398,
        "meta_ephemeris_type": 0,
        "meta_classification_type": "U",
        "meta_norad_cat_id": 66560,
        "meta_element_set_no": 999,
        "meta_rev_at_epoch": 297,
        "meta_bstar": -0.0097161,
        "meta_mean_motion_dot": -0.01535043,
        "meta_mean_motion_ddot": 0,
        "tle_line1": "1 66560U 25268D   25336.16671295 -.01535043  00000+0 -97161-2 0  9990",
        "tle_line2": "2 66560  42.9971 183.9512 0001841 275.3133 118.9398 15.78594445  2973"
      },
      "geometry": {
        "type": "Point",
        "coordinates": [
          30.74638146277029,
          -23.99245832883551
        ]
      }
    },
    {
      "type": "Feature",
      "properties": {
        "norad_id": 66561,
        "name": "STARLINK-35305",
        "group": "last-30-days",
        "lat": -26.355685321826417,
        "lon": 34.325425722447896,
        "alt_km": 339.15298970091044,
        "timestamp": "2025-12-02T10:50:46.053299+00:00",
        "meta_object_name": "STARLINK-35305",
        "meta_object_id": "2025-268E",
        "meta_epoch": "2025-12-02T04:00:03.998880",
        "meta_mean_motion": 15.78552047,
        "meta_eccentricity": 0.0001806,
        "meta_inclination": 42.997,
        "meta_ra_of_asc_node": 183.9409,
        "meta_arg_of_pericenter": 279.3191,
        "meta_mean_anomaly": 119.0046,
        "meta_ephemeris_type": 0,
        "meta_classification_type": "U",
        "meta_norad_cat_id": 66561,
        "meta_element_set_no": 999,
        "meta_rev_at_epoch": 292,
        "meta_bstar": -0.0098702,
        "meta_mean_motion_dot": -0.01553659,
        "meta_mean_motion_ddot": 0,
        "tle_line1": "1 66561U 25268E   25336.16671295 -.01553659  00000+0 -98702-2 0  9996",
        "tle_line2": "2 66561  42.9970 183.9409 0001806 279.3191 119.0046 15.78552047  2926"
      },
      "geometry": {
        "type": "Point",
        "coordinates": [
          34.325425722447896,
          -26.355685321826417
        ]
      }
    },
    {
      "type": "Feature",
      "properties": {
        "norad_id": 66562,
        "name": "STARLINK-35579",
        "group": "last-30-days",
        "lat": -25.205547902531897,
        "lon": 32.54970566217681,
        "alt_km": 338.9661423829066,
        "timestamp": "2025-12-02T10:50:46.053311+00:00",
        "meta_object_name": "STARLINK-35579",
        "meta_object_id": "2025-268F",
        "meta_epoch": "2025-12-02T04:00:03.998880",
        "meta_mean_motion": 15.78569567,
        "meta_eccentricity": 0.0001881,
        "meta_inclination": 42.9969,
        "meta_ra_of_asc_node": 183.9457,
        "meta_arg_of_pericenter": 276.0311,
        "meta_mean_anomaly": 120.301,
        "meta_ephemeris_type": 0,
        "meta_classification_type": "U",
        "meta_norad_cat_id": 66562,
        "meta_element_set_no": 999,
        "meta_rev_at_epoch": 297,
        "meta_bstar": -0.0098811,
        "meta_mean_motion_dot": -0.01556303,
        "meta_mean_motion_ddot": 0,
        "tle_line1": "1 66562U 25268F   25336.16671295 -.01556303  00000+0 -98811-2 0  9997",
        "tle_line2": "2 66562  42.9969 183.9457 0001881 276.0311 120.3010 15.78569567  2975"
      },
      "geometry": {
        "type": "Point",
        "coordinates": [
          32.54970566217681,
          -25.205547902531897
        ]
      }
    },
    {
      "type": "Feature",
      "properties": {
        "norad_id": 66563,
        "name": "STARLINK-35437",
        "group": "last-30-days",
        "lat": -27.519674721323653,
        "lon": 36.19589383689445,
        "alt_km": 339.1642110413368,
        "timestamp": "2025-12-02T10:50:46.053321+00:00",
        "meta_object_name": "STARLINK-35437",
        "meta_object_id": "2025-268G",
        "meta_epoch": "2025-12-02T04:00:03.998880",
        "meta_mean_motion": 15.78527328,
        "meta_eccentricity": 0.0001783,
        "meta_inclination": 42.9968,
        "meta_ra_of_asc_node": 183.9353,
        "meta_arg_of_pericenter": 272.6332,
        "meta_mean_anomaly": 127.7597,
        "meta_ephemeris_type": 0,
        "meta_classification_type": "U",
        "meta_norad_cat_id": 66563,
        "meta_element_set_no": 999,
        "meta_rev_at_epoch": 297,
        "meta_bstar": -0.010007,
        "meta_mean_motion_dot": -0.015709,
        "meta_mean_motion_ddot": 0,
        "tle_line1": "1 66563U 25268G   25336.16671295 -.01570900  00000+0 -10007-1 0  9997",
        "tle_line2": "2 66563  42.9968 183.9353 0001783 272.6332 127.7597 15.78527328  2976"
      },
      "geometry": {
        "type": "Point",
        "coordinates": [
          36.19589383689445,
          -27.519674721323653
        ]
      }
    },
    {
      "type": "Feature",
      "properties": {
        "norad_id": 66564,
        "name": "STARLINK-35358",
        "group": "last-30-days",
        "lat": -28.61179026387106,
        "lon": 38.027386190818234,
        "alt_km": 339.2717336761634,
        "timestamp": "2025-12-02T10:50:46.053333+00:00",
        "meta_object_name": "STARLINK-35358",
        "meta_object_id": "2025-268H",
        "meta_epoch": "2025-12-02T04:00:03.998880",
        "meta_mean_motion": 15.78516648,
        "meta_eccentricity": 0.0001893,
        "meta_inclination": 42.9967,
        "meta_ra_of_asc_node": 183.9306,
        "meta_arg_of_pericenter": 277.096,
        "meta_mean_anomaly": 125.2642,
        "meta_ephemeris_type": 0,
        "meta_classification_type": "U",
        "meta_norad_cat_id": 66564,
        "meta_element_set_no": 999,
        "meta_rev_at_epoch": 292,
        "meta_bstar": -0.0099851,
        "meta_mean_motion_dot": -0.01567291,
        "meta_mean_motion_ddot": 0,
        "tle_line1": "1 66564U 25268H   25336.16671295 -.01567291  00000+0 -99851-2 0  9992",
        "tle_line2": "2 66564  42.9967 183.9306 0001893 277.0960 125.2642 15.78516648  2924"
      },
      "geometry": {
        "type": "Point",
        "coordinates": [
          38.027386190818234,
          -28.61179026387106
        ]
      }
    },
    {
      "type": "Feature",
      "properties": {
        "norad_id": 66565,
        "name": "STARLINK-35893",
        "group": "last-30-days",
        "lat": -29.693307450462108,
        "lon": 39.922338084857294,
        "alt_km": 339.3637323140638,
        "timestamp": "2025-12-02T10:50:46.053343+00:00",
        "meta_object_name": "STARLINK-35893",
        "meta_object_id": "2025-268J",
        "meta_epoch": "2025-12-02T04:00:03.998880",
        "meta_mean_motion": 15.7849766,
        "meta_eccentricity": 0.0001855,
        "meta_inclination": 42.9969,
        "meta_ra_of_asc_node": 183.9253,
        "meta_arg_of_pericenter": 276.2704,
        "meta_mean_anomaly": 128.0929,
        "meta_ephemeris_type": 0,
        "meta_classification_type": "U",
        "meta_norad_cat_id": 66565,
        "meta_element_set_no": 999,
        "meta_rev_at_epoch": 297,
        "meta_bstar": -0.010027,
        "meta_mean_motion_dot": -0.01571801,
        "meta_mean_motion_ddot": 0,
        "tle_line1": "1 66565U 25268J   25336.16671295 -.01571801  00000+0 -10027-1 0  9992",
        "tle_line2": "2 66565  42.9969 183.9253 0001855 276.2704 128.0929 15.78497660  2979"
      },
      "geometry": {
        "type": "Point",
        "coordinates": [
          39.922338084857294,
          -29.693307450462108
        ]
      }
    }
  ]
}